{"type": "FeatureCollection", "features": [{"type": "Feature", "properties": {"kind": "port", "name": "Embarcadère Ndangane Campement"}, "geometry": {"type": "Point", "coordinates": [-16.6934, 14.0731]}}, {"type": "Feature", "properties": {"kind": "port", "name": "Goree-Dakar Ferry"}, "geometry": {"type": "Point", "coordinates": [-17.3986, 14.6693]}}, {"type": "Feature", "properties": {"kind": "port", "name": "Boats to Iles de la Madeleine"}, "geometry": {"type": "Point", "coordinates": [-17.4629, 14.6776]}}, {"type": "Feature", "properties": {"kind": "airport", "name": "Dodji"}, "geometry": {"type": "Point", "coordinates": [-14.9586, 15.5388]}}, {"type": "Feature", "properties": {"kind": "port", "name": "Embarcadère de Djoudj"}, "geometry": {"type": "Point", "coordinates": [-16.303, 16.4101]}}, {"type": "Feature", "properties": {"kind": "airport", "name": "Linguère"}, "geometry": {"type": "Point", "coordinates": [-15.0806, 15.4021]}}, {"type": "Feature", "properties": {"kind": "port", "name": "Bac Dakhonga : Piéton 100F - Véhicule 1500F"}, "geometry": {"type": "Point", "coordinates": [-16.4723, 14.1405]}}, {"type": "Feature", "properties": {"kind": "port", "name": "Missira"}, "geometry": {"type": "Point", "coordinates": [-16.5067, 13.6804]}}, {"type": "Feature", "properties": {"kind": "port", "name": "Gare Maritime de Rufisque"}, "geometry": {"type": "Point", "coordinates": [-17.2792, 14.7127]}}, {"type": "Feature", "properties": {"kind": "port", "name": "Foundiougne"}, "geometry": {"type": "Point", "coordinates": [-16.4674, 14.1307]}}, {"type": "Feature", "properties": {"kind": "port", "name": "Sédhiou"}, "geometry": {"type": "Point", "coordinates": [-15.5513, 12.7134]}}, {"type": "Feature", "properties": {"kind": "port", "name": "Rosso Sénégal"}, "geometry": {"type": "Point", "coordinates": [-15.8102, 16.5045]}}, {"type": "Feature", "properties": {"kind": "port", "name": "Dagana"}, "geometry": {"type": "Point", "coordinates": [-15.5067, 16.5259]}}, {"type": "Feature", "properties": {"kind": "port", "name": "Station de ferry de Démèt محطة ديمت العبارة"}, "geometry": {"type": "Point", "coordinates": [-14.2755, 16.5809]}}, {"type": "Feature", "properties": {"kind": "port", "name": "Diowguel"}, "geometry": {"type": "Point", "coordinates": [-13.6959, 16.103]}}, {"type": "Feature", "properties": {"kind": "port", "name": "Gaé"}, "geometry": {"type": "Point", "coordinates": [-15.456, 16.5871]}}, {"type": "Feature", "properties": {"kind": "port", "name": "Tiélaw"}, "geometry": {"type": "Point", "coordinates": [-14.5579, 16.5815]}}, {"type": "Feature", "properties": {"kind": "port", "name": "Île de Ngor"}, "geometry": {"type": "Point", "coordinates": [-17.5128, 14.7549]}}, {"type": "Feature", "properties": {"kind": "port", "name": "Béttenty"}, "geometry": {"type": "Point", "coordinates": [-16.6313, 13.687]}}, {"type": "Feature", "properties": {"kind": "port", "name": "Embarcadére Bassar"}, "geometry": {"type": "Point", "coordinates": [-16.613, 13.9221]}}, {"type": "Feature", "properties": {"kind": "port", "name": "Karabane"}, "geometry": {"type": "Point", "coordinates": [-16.6983, 12.5612]}}, {"type": "Feature", "properties": {"kind": "port", "name": "Gare Maritime de Ziguinchor"}, "geometry": {"type": "Point", "coordinates": [-16.2682, 12.5882]}}, {"type": "Feature", "properties": {"kind": "port", "name": "Saint-Louis"}, "geometry": {"type": "Point", "coordinates": [-16.5032, 16.0281]}}, {"type": "Feature", "properties": {"kind": "port", "name": "Podor"}, "geometry": {"type": "Point", "coordinates": [-14.9553, 16.6541]}}, {"type": "Feature", "properties": {"kind": "port", "name": "والي جاهتانك"}, "geometry": {"type": "Point", "coordinates": [-12.8794, 15.3294]}}, {"type": "Feature", "properties": {"kind": "port", "name": "Bakel"}, "geometry": {"type": "Point", "coordinates": [-12.4537, 14.9017]}}, {"type": "Feature", "properties": {"kind": "port", "name": "Diama"}, "geometry": {"type": "Point", "coordinates": [-16.4087, 16.2134]}}, {"type": "Feature", "properties": {"kind": "port", "name": "Embarcadère Ndangane Sambou"}, "geometry": {"type": "Point", "coordinates": [-16.7044, 14.0733]}}, {"type": "Feature", "properties": {"kind": "port", "name": "Piroques vers Karabane"}, "geometry": {"type": "Point", "coordinates": [-16.6655, 12.5063]}}, {"type": "Feature", "properties": {"kind": "port", "name": "Embarquement Casamance pirogue tour"}, "geometry": {"type": "Point", "coordinates": [-16.6662, 12.4275]}}, {"type": "Feature", "properties": {"kind": "port", "name": "Richard Toll"}, "geometry": {"type": "Point", "coordinates": [-15.7068, 16.4702]}}, {"type": "Feature", "properties": {"kind": "port", "name": "Embarcadère Keur Papaye"}, "geometry": {"type": "Point", "coordinates": [-16.7606, 13.9365]}}, {"type": "Feature", "properties": {"kind": "port", "name": "Embarcadère Dion war"}, "geometry": {"type": "Point", "coordinates": [-16.7324, 13.8883]}}, {"type": "Feature", "properties": {"kind": "port", "name": "Embarcadere Falia"}, "geometry": {"type": "Point", "coordinates": [-16.6827, 13.9182]}}, {"type": "Feature", "properties": {"kind": "port", "name": "Embarcadere Siwo"}, "geometry": {"type": "Point", "coordinates": [-16.6547, 13.9056]}}, {"type": "Feature", "properties": {"kind": "port", "name": "Embarcadere Kabiline"}, "geometry": {"type": "Point", "coordinates": [-16.5877, 12.9783]}}, {"type": "Feature", "properties": {"kind": "airport", "name": "Aéroport d'Ourossogui"}, "geometry": {"type": "Point", "coordinates": [-13.3224, 15.5933]}}, {"type": "Feature", "properties": {"kind": "airport", "name": "Rosso"}, "geometry": {"type": "Point", "coordinates": [-15.7534, 16.4403]}}, {"type": "Feature", "properties": {"kind": "airport", "name": "Kedougou Airport"}, "geometry": {"type": "Point", "coordinates": [-12.2204, 12.5724]}}, {"type": "Feature", "properties": {"kind": "airport", "name": "Aéroport Richard-Toll"}, "geometry": {"type": "Point", "coordinates": [-15.6569, 16.438]}}, {"type": "Feature", "properties": {"kind": "airport", "name": "Aéroport de Cap Skirring"}, "geometry": {"type": "Point", "coordinates": [-16.7485, 12.3948]}}, {"type": "Feature", "properties": {"kind": "airport", "name": "Simenti Airport"}, "geometry": {"type": "Point", "coordinates": [-13.2952, 13.0469]}}, {"type": "Feature", "properties": {"kind": "airport", "name": "Aéroport de Tambacounda"}, "geometry": {"type": "Point", "coordinates": [-13.6544, 13.7356]}}, {"type": "Feature", "properties": {"kind": "airport", "name": "Aéroport International Blaise-Diagne"}, "geometry": {"type": "Point", "coordinates": [-17.0735, 14.6707]}}, {"type": "Feature", "properties": {"kind": "airport", "name": "Aérodrome de Saly-Joseph"}, "geometry": {"type": "Point", "coordinates": [-17.0134, 14.4644]}}, {"type": "Feature", "properties": {"kind": "airport", "name": "Aéroport de Podor"}, "geometry": {"type": "Point", "coordinates": [-14.9651, 16.678]}}, {"type": "Feature", "properties": {"kind": "airport", "name": "Aérodrome de Thies"}, "geometry": {"type": "Point", "coordinates": [-16.9514, 14.8097]}}, {"type": "Feature", "properties": {"kind": "airport", "name": "Aéroport militaire - ancien aeroport international Léopold-S"}, "geometry": {"type": "Point", "coordinates": [-17.4859, 14.7369]}}, {"type": "Feature", "properties": {"kind": "airport", "name": "Aérodrome de Djilor"}, "geometry": {"type": "Point", "coordinates": [-16.666, 14.0864]}}, {"type": "Feature", "properties": {"kind": "airport", "name": "Kolda Airport"}, "geometry": {"type": "Point", "coordinates": [-14.9681, 12.8991]}}, {"type": "Feature", "properties": {"kind": "port", "name": "Port du Futur de Ndayane (projet)"}, "geometry": {"type": "Point", "coordinates": [-17.3236, 14.5367]}}, {"type": "Feature", "properties": {"kind": "port", "name": "Port de Rufisque"}, "geometry": {"type": "Point", "coordinates": [-17.2647, 14.6806]}}, {"type": "Feature", "properties": {"kind": "port", "name": "Port de Bargny"}, "geometry": {"type": "Point", "coordinates": [-17.2292, 14.6942]}}, {"type": "Feature", "properties": {"kind": "port", "name": "Port de Kaolack"}, "geometry": {"type": "Point", "coordinates": [-16.0762, 14.1512]}}, {"type": "Feature", "properties": {"kind": "port", "name": "Port de Foundiougne"}, "geometry": {"type": "Point", "coordinates": [-16.4689, 14.2422]}}, {"type": "Feature", "properties": {"kind": "port", "name": "Port de Fatick"}, "geometry": {"type": "Point", "coordinates": [-16.4111, 14.3381]}}, {"type": "Feature", "properties": {"kind": "port", "name": "Port de Joal-Fadiouth"}, "geometry": {"type": "Point", "coordinates": [-16.8442, 14.1667]}}, {"type": "Feature", "properties": {"kind": "port", "name": "Port de Mbour"}, "geometry": {"type": "Point", "coordinates": [-17.0322, 14.42]}}, {"type": "Feature", "properties": {"kind": "port", "name": "Port de Ziguinchor"}, "geometry": {"type": "Point", "coordinates": [-16.2719, 12.5833]}}, {"type": "Feature", "properties": {"kind": "port", "name": "Port d'Elinkine"}, "geometry": {"type": "Point", "coordinates": [-16.7, 12.3833]}}]}